[{"OBJECT_NAME":"ONEWEB-0701","OBJECT_ID":"2024-188P","EPOCH":"2026-03-19T04:59:56.262912","MEAN_MOTION":13.10375181,"ECCENTRICITY":0.00027505,"INCLINATION":87.88,"RA_OF_ASC_NODE":54.1743,"ARG_OF_PERICENTER":82.4499,"MEAN_ANOMALY":277.6941,"EPHEMERIS_TYPE":0,"CLASSIFICATION_TYPE":"U","NORAD_CAT_ID":61607,"ELEMENT_SET_NO":999,"REV_AT_EPOCH":7152,"BSTAR":3.8761772e-5,"MEAN_MOTION_DOT":2.6e-7,"MEAN_MOTION_DDOT":0},{"OBJECT_NAME":"ONEWEB-0702","OBJECT_ID":"2024-188Q","EPOCH":"2026-03-19T07:04:06.704256","MEAN_MOTION":13.11414575,"ECCENTRICITY":0.00028275,"INCLINATION":87.8895,"RA_OF_ASC_NODE":38.843,"ARG_OF_PERICENTER":73.066,"MEAN_ANOMALY":287.0778,"EPHEMERIS_TYPE":0,"CLASSIFICATION_TYPE":"U","NORAD_CAT_ID":61608,"ELEMENT_SET_NO":999,"REV_AT_EPOCH":7270,"BSTAR":-0.0014658666,"MEAN_MOTION_DOT":-5.07e-6,"MEAN_MOTION_DDOT":0},{"OBJECT_NAME":"ONEWEB-0704","OBJECT_ID":"2024-188R","EPOCH":"2026-03-19T04:43:10.911648","MEAN_MOTION":13.10374386,"ECCENTRICITY":0.00027739,"INCLINATION":87.8809,"RA_OF_ASC_NODE":54.1539,"ARG_OF_PERICENTER":72.9259,"MEAN_ANOMALY":287.2172,"EPHEMERIS_TYPE":0,"CLASSIFICATION_TYPE":"U","NORAD_CAT_ID":61609,"ELEMENT_SET_NO":999,"REV_AT_EPOCH":7150,"BSTAR":-0.0020328909,"MEAN_MOTION_DOT":-6.97e-6,"MEAN_MOTION_DDOT":0},{"OBJECT_NAME":"ONEWEB-0705","OBJECT_ID":"2024-188S","EPOCH":"2026-03-19T04:50:21.709824","MEAN_MOTION":13.10376195,"ECCENTRICITY":0.00021872,"INCLINATION":87.8801,"RA_OF_ASC_NODE":54.1652,"ARG_OF_PERICENTER":52.7244,"MEAN_ANOMALY":307.4082,"EPHEMERIS_TYPE":0,"CLASSIFICATION_TYPE":"U","NORAD_CAT_ID":61610,"ELEMENT_SET_NO":999,"REV_AT_EPOCH":6367,"BSTAR":-0.00083216356,"MEAN_MOTION_DOT":-2.78e-6,"MEAN_MOTION_DDOT":0},{"OBJECT_NAME":"ONEWEB-0706","OBJECT_ID":"2024-188T","EPOCH":"2026-03-18T22:58:58.616832","MEAN_MOTION":13.10372588,"ECCENTRICITY":0.00023279,"INCLINATION":87.8784,"RA_OF_ASC_NODE":54.2252,"ARG_OF_PERICENTER":71.8924,"MEAN_ANOMALY":288.2456,"EPHEMERIS_TYPE":0,"CLASSIFICATION_TYPE":"U","NORAD_CAT_ID":61611,"ELEMENT_SET_NO":999,"REV_AT_EPOCH":7156,"BSTAR":-0.0019773643,"MEAN_MOTION_DOT":-6.78e-6,"MEAN_MOTION_DDOT":0},{"OBJECT_NAME":"ONEWEB-0707","OBJECT_ID":"2024-188U","EPOCH":"2026-03-19T04:38:24.268416","MEAN_MOTION":13.10374118,"ECCENTRICITY":0.0002367,"INCLINATION":87.8799,"RA_OF_ASC_NODE":54.166,"ARG_OF_PERICENTER":73.7876,"MEAN_ANOMALY":286.3512,"EPHEMERIS_TYPE":0,"CLASSIFICATION_TYPE":"U","NORAD_CAT_ID":61612,"ELEMENT_SET_NO":999,"REV_AT_EPOCH":7153,"BSTAR":-0.0020257628,"MEAN_MOTION_DOT":-6.94e-6,"MEAN_MOTION_DDOT":0},{"OBJECT_NAME":"ONEWEB-0708","OBJECT_ID":"2024-188V","EPOCH":"2026-03-19T06:54:40.253760","MEAN_MOTION":13.10375543,"ECCENTRICITY":0.00016606,"INCLINATION":87.8791,"RA_OF_ASC_NODE":54.1745,"ARG_OF_PERICENTER":66.0493,"MEAN_ANOMALY":294.0809,"EPHEMERIS_TYPE":0,"CLASSIFICATION_TYPE":"U","NORAD_CAT_ID":61613,"ELEMENT_SET_NO":999,"REV_AT_EPOCH":7152,"BSTAR":0.0005306054,"MEAN_MOTION_DOT":1.98e-6,"MEAN_MOTION_DDOT":0}]
